NORAD_CAT_ID,OBJECT_NAME,OBJECT_TYPE,EPOCH,MEAN_MOTION,ECCENTRICITY,INCLINATION,RA_OF_ASC_NODE,ARG_OF_PERICENTER,MEAN_ANOMALY,BSTAR,MEAN_MOTION_DOT,MEAN_MOTION_DDOT,TLE_LINE0,TLE_LINE1,TLE_LINE2,SEMIMAJOR_AXIS,PERIOD,APOGEE,PERIGEE,DECAYED
49765.0,STARLINK-3227,PAYLOAD,2024-06-25 20:16:17,15.08848373,0.0001326,53.2187,50.6986,110.35,249.7635,2.6464e-07,-2.84e-06,0.0,0 STARLINK-3227,1 49765U 21115AT  24177.84465078 -.00000284  00000-0  26464-6 0  9997,2 49765  53.2187  50.6986 0001326 110.3500 249.7635 15.08848373142915,6917.855,95.437,540.637,538.802,0.0
49765.0,STARLINK-3227,PAYLOAD,2024-06-25 21:51:40,15.08850314,0.0001308,53.2185,50.4011,105.8178,254.2958,1.4955e-05,-5e-07,0.0,0 STARLINK-3227,1 49765U 21115AT  24177.91088921 -.00000050  00000-0  14955-4 0  9994,2 49765  53.2185  50.4011 0001308 105.8178 254.2958 15.08850314141815,6917.849,95.437,540.619,538.809,0.0
49765.0,STARLINK-3227,PAYLOAD,2024-06-27 21:33:15,15.08842185,0.0001406,53.2175,41.4818,100.7024,259.4127,5.1729e-05,5.35e-06,0.0,0 STARLINK-3227,1 49765U 21115AT  24179.89809355  .00000535  00000-0  51729-4 0  9992,2 49765  53.2175  41.4818 0001406 100.7024 259.4127 15.08842185143221,6917.874,95.437,540.711,538.766,0.0
49765.0,STARLINK-3227,PAYLOAD,2024-06-28 21:24:00,15.08861184,0.0001295,53.2173,37.0207,100.6987,259.4151,0.00024649,3.639e-05,0.0,0 STARLINK-3227,1 49765U 21115AT  24180.89167641  .00003639  00000-0  24649-3 0  9997,2 49765  53.2173  37.0207 0001295 100.6987 259.4151 15.08861184143378,6917.816,95.436,540.576,538.785,0.0
49765.0,STARLINK-3227,PAYLOAD,2024-06-29 13:17:54,15.08831134,0.0001917,53.2179,34.0519,86.4759,273.6452,-2.3835e-05,-6.67e-06,0.0,0 STARLINK-3227,1 49765U 21115AT  24181.55410327 -.00000667  00000-0 -23835-4 0  9990,2 49765  53.2179  34.0519 0001917  86.4759 273.6452 15.08831134143471,6917.907,95.438,541.099,538.446,0.0
49765.0,STARLINK-3227,PAYLOAD,2024-06-29 14:53:18,15.08822192,0.0001518,53.2178,33.7541,89.6264,270.4902,-0.00010031,-1.883e-05,0.0,0 STARLINK-3227,1 49765U 21115AT  24181.62035026 -.00001883  00000-0 -10031-3 0  9991,2 49765  53.2178  33.7541 0001518  89.6264 270.4902 15.08822192142371,6917.935,95.439,540.85,538.75,0.0
49765.0,STARLINK-3227,PAYLOAD,2024-06-29 21:14:50,15.08824262,0.0001419,53.2184,32.5662,92.2773,267.8382,-0.00018905,-3.294e-05,0.0,0 STARLINK-3227,1 49765U 21115AT  24181.88530262 -.00003294  00000-0 -18905-3 0  9997,2 49765  53.2184  32.5662 0001419  92.2773 267.8382 15.08824262142411,6917.928,95.439,540.775,538.812,0.0
49765.0,STARLINK-3227,PAYLOAD,2024-06-30 06:47:09,15.08828581,0.0001502,53.2191,30.7817,94.6746,265.4418,-8.6998e-05,-1.672e-05,0.0,0 STARLINK-3227,1 49765U 21115AT  24182.28274343 -.00001672  00000-0 -86998-4 0  9993,2 49765  53.2191  30.7817 0001502  94.6746 265.4418 15.08828581142478,6917.915,95.438,540.819,538.741,0.0
49765.0,STARLINK-3227,PAYLOAD,2024-06-30 21:05:36,15.08849207,0.0001323,53.2176,28.1049,82.5684,277.5459,0.00030955,4.643e-05,0.0,0 STARLINK-3227,1 49765U 21115AT  24182.87889730  .00004643  00000-0  30955-3 0  9990,2 49765  53.2176  28.1049 0001323  82.5684 277.5459 15.08849207143677,6917.852,95.437,540.632,538.802,0.0
49765.0,STARLINK-3227,PAYLOAD,2024-07-01 06:37:55,15.08846251,0.0001534,53.2159,26.3156,80.6164,279.5002,0.000485,7.441e-05,0.0,0 STARLINK-3227,1 49765U 21115AT  24183.27634147  .00007441  00000-0  48500-3 0  9999,2 49765  53.2159  26.3156 0001534  80.6164 279.5002 15.08846251143732,6917.861,95.437,540.787,538.665,0.0
49765.0,STARLINK-3227,PAYLOAD,2024-07-01 22:31:47,15.08848963,0.0001352,53.217,23.3431,82.7862,277.3284,0.0003592,5.435e-05,0.0,0 STARLINK-3227,1 49765U 21115AT  24183.93873930  .00005435  00000-0  35920-3 0  9990,2 49765  53.2170  23.3431 0001352  82.7862 277.3284 15.08848963142722,6917.853,95.437,540.653,538.783,0.0
49765.0,STARLINK-3227,PAYLOAD,2024-07-02 12:50:15,15.08841761,0.0001498,53.2163,20.6715,76.0029,284.113,0.00013906,1.926e-05,0.0,0 STARLINK-3227,1 49765U 21115AT  24184.53490193  .00001926  00000-0  13906-3 0  9994,2 49765  53.2163  20.6715 0001498  76.0029 284.1130 15.08841761143929,6917.875,95.437,540.776,538.704,0.0
49765.0,STARLINK-3227,PAYLOAD,2024-07-02 20:47:11,15.08841945,0.0001133,53.216,19.1828,74.9172,285.1946,0.00013838,1.915e-05,0.0,0 STARLINK-3227,1 49765U 21115AT  24184.86610213  .00001915  00000-0  13838-3 0  9999,2 49765  53.2160  19.1828 0001133  74.9172 285.1946 15.08841945142868,6917.874,95.437,540.523,538.956,0.0
49765.0,STARLINK-3227,PAYLOAD,2024-07-03 19:02:35,15.08841536,0.0001124,53.2169,15.0189,82.849,277.263,0.00022392,3.278e-05,0.0,0 STARLINK-3227,1 49765U 21115AT  24185.79346431  .00003278  00000-0  22392-3 0  9999,2 49765  53.2169  15.0189 0001124  82.8490 277.2630 15.08841536144111,6917.876,95.437,540.518,538.963,0.0
49765.0,STARLINK-3227,PAYLOAD,2024-07-04 12:31:49,15.08841224,0.000116,53.2161,11.7497,71.7878,288.324,0.00021409,3.121e-05,0.0,0 STARLINK-3227,1 49765U 21115AT  24186.52210622  .00003121  00000-0  21409-3 0  9998,2 49765  53.2161  11.7497 0001160  71.7878 288.3240 15.08841224143118,6917.877,95.437,540.544,538.939,0.0
49765.0,STARLINK-3227,PAYLOAD,2024-07-04 18:53:22,15.08846072,0.0001182,53.2174,10.5594,83.9051,276.2076,0.00022889,3.357e-05,0.0,0 STARLINK-3227,1 49765U 21115AT  24186.78706380  .00003357  00000-0  22889-3 0  9991,2 49765  53.2174  10.5594 0001182  83.9051 276.2076 15.08846072143152,6917.862,95.437,540.545,538.909,0.0
49765.0,STARLINK-3227,PAYLOAD,2024-07-05 12:22:36,15.08842961,0.0001018,53.2151,7.2886,78.3293,281.7813,0.000159,2.244e-05,0.0,0 STARLINK-3227,1 49765U 21115AT  24187.51570440  .00002244  00000-0  15900-3 0  9999,2 49765  53.2151   7.2886 0001018  78.3293 281.7813 15.08842961144376,6917.871,95.437,540.441,539.032,0.0
49765.0,STARLINK-3227,PAYLOAD,2024-07-05 18:44:09,15.08847442,0.0001116,53.2179,6.0973,92.5581,267.5539,0.00019481,2.815e-05,0.0,0 STARLINK-3227,1 49765U 21115AT  24187.78066131  .00002815  00000-0  19481-3 0  9997,2 49765  53.2179   6.0973 0001116  92.5581 267.5539 15.08847442143305,6917.858,95.437,540.495,538.951,0.0
49765.0,STARLINK-3227,PAYLOAD,2024-07-06 18:34:56,15.08839316,0.0001124,53.2183,1.6383,91.5907,268.5214,-1.1374e-05,-4.69e-06,0.0,0 STARLINK-3227,1 49765U 21115AT  24188.77426473 -.00000469  00000-0 -11374-4 0  9995,2 49765  53.2183   1.6383 0001124  91.5907 268.5214 15.08839316144567,6917.882,95.438,540.525,538.97,0.0
49765.0,STARLINK-3227,PAYLOAD,2024-07-07 10:28:48,15.0884053,0.0001493,53.2187,358.6654,105.0282,255.0876,-3.6488e-05,-8.69e-06,0.0,0 STARLINK-3227,1 49765U 21115AT  24189.43666969 -.00000869  00000-0 -36488-4 0  9992,2 49765  53.2187 358.6654 0001493 105.0282 255.0876 15.08840530143556,6917.879,95.438,540.777,538.711,0.0
49765.0,STARLINK-3227,PAYLOAD,2024-07-08 03:58:02,15.0883151,0.0001334,53.2192,355.3949,100.4299,259.6844,0.00027197,4.042e-05,0.0,0 STARLINK-3227,1 49765U 21115AT  24190.16530962  .00004042  00000-0  27197-3 0  9998,2 49765  53.2192 355.3949 0001334 100.4299 259.6844 15.08831510144772,6917.906,95.438,540.694,538.848,0.0
49765.0,STARLINK-3227,PAYLOAD,2024-07-08 19:51:53,15.08841999,0.0001316,53.2191,352.4209,86.3872,273.7271,0.0001548,2.177e-05,0.0,0 STARLINK-3227,1 49765U 21115AT  24190.82770733  .00002177  00000-0  15480-3 0  9992,2 49765  53.2191 352.4209 0001316  86.3872 273.7271 15.08841999143768,6917.874,95.437,540.65,538.829,0.0
49765.0,STARLINK-3227,PAYLOAD,2024-07-09 14:56:32,15.0882928,8.95e-05,53.2188,348.8475,75.4561,284.6531,0.00017722,2.533e-05,0.0,0 STARLINK-3227,1 49765U 21115AT  24191.62259473  .00002533  00000-0  17722-3 0  9991,2 49765  53.2188 348.8475 0000895  75.4561 284.6531 15.08829280143885,6917.913,95.438,540.397,539.159,0.0
49765.0,STARLINK-3227,PAYLOAD,2024-07-09 19:42:41,15.08844219,0.0001281,53.2194,347.9585,86.3374,273.7765,4.0257e-05,3.53e-06,0.0,0 STARLINK-3227,1 49765U 21115AT  24191.82130952  .00000353  00000-0  40257-4 0  9991,2 49765  53.2194 347.9585 0001281  86.3374 273.7765 15.08844219145022,6917.867,95.437,540.619,538.846,0.0
49765.0,STARLINK-3227,PAYLOAD,2024-07-10 10:01:09,15.08836944,0.0001176,53.2185,345.2846,87.4619,272.6508,0.00010287,1.35e-05,0.0,0 STARLINK-3227,1 49765U 21115AT  24192.41747282  .00001350  00000-0  10287-3 0  9994,2 49765  53.2185 345.2846 0001176  87.4619 272.6508 15.08836944145119,6917.89,95.438,540.568,538.941,0.0
49765.0,STARLINK-3227,PAYLOAD,2024-07-10 16:22:42,15.08840555,0.0001227,53.2185,344.0962,86.6594,273.4539,0.00012179,1.651e-05,0.0,0 STARLINK-3227,1 49765U 21115AT  24192.68243073  .00001651  00000-0  12179-3 0  9998,2 49765  53.2185 344.0962 0001227  86.6594 273.4539 15.08840555144042,6917.879,95.438,540.593,538.895,0.0
49765.0,STARLINK-3227,PAYLOAD,2024-07-11 14:38:06,15.08831535,0.0001132,53.2181,339.933,90.1034,270.0088,0.00029791,4.455e-05,0.0,0 STARLINK-3227,1 49765U 21115AT  24193.60979311  .00004455  00000-0  29791-3 0  9995,2 49765  53.2181 339.9330 0001132  90.1034 270.0088 15.08831535144189,6917.906,95.438,540.554,538.988,0.0
49765.0,STARLINK-3227,PAYLOAD,2024-07-12 03:21:10,15.08845391,0.0001128,53.2182,337.5538,86.169,273.9431,8.8865e-05,1.127e-05,0.0,0 STARLINK-3227,1 49765U 21115AT  24194.13970688  .00001127  00000-0  88865-4 0  9993,2 49765  53.2182 337.5538 0001128  86.1690 273.9431 15.08845391145373,6917.864,95.437,540.509,538.949,0.0
49765.0,STARLINK-3227,PAYLOAD,2024-07-12 14:28:53,15.08834516,0.000124,53.2189,335.4721,95.6721,264.4413,0.0001926,2.778e-05,0.0,0 STARLINK-3227,1 49765U 21115AT  24194.60339187  .00002778  00000-0  19260-3 0  9993,2 49765  53.2189 335.4721 0001240  95.6721 264.4413 15.08834516144333,6917.897,95.438,540.62,538.904,0.0
49765.0,STARLINK-3227,PAYLOAD,2024-07-12 19:15:01,15.08850738,0.0001139,53.2184,334.5777,95.8687,264.2435,0.00011453,1.536e-05,0.0,0 STARLINK-3227,1 49765U 21115AT  24194.80210123  .00001536  00000-0  11453-3 0  9990,2 49765  53.2184 334.5777 0001139  95.8687 264.2435 15.08850738144368,6917.848,95.437,540.501,538.925,0.0
